STARLINK-36383          
1 67922U 26036U   26066.25001157 -.00065080  00000+0 -30938-3 0  9990
2 67922  42.9995 264.5664 0001777 259.5466 179.5516 15.81978776  3251
STARLINK-36406          
1 67923U 26036V   26066.25001157 -.00124259  00000+0 -59468-3 0  9994
2 67923  42.9996 264.5553 0002481 276.9054 166.3904 15.82061128  3259
STARLINK-36714          
1 67924U 26036W   26066.25001157 -.00049369  00000+0 -23321-3 0  9992
2 67924  42.9995 264.5453 0002194 263.4299 184.1415 15.82017282  3258
STARLINK-36726          
1 67925U 26036X   26066.25001157 -.00039173  00000+0 -18423-3 0  9992
2 67925  42.9996 264.5344 0001999 263.5343 188.2819 15.82026780  3258
STARLINK-36758          
1 67926U 26036Y   26066.25001157 -.00014899  00000+0 -68361-4 0  9998
2 67926  42.9997 264.5235 0001632 296.5294 159.5634 15.82009840  3258
STARLINK-36728          
1 67927U 26036Z   26066.25001157 -.00055770  00000+0 -26366-3 0  9990
2 67927  42.9998 264.5014 0002226 266.6614 197.9644 15.82042205  3258
STARLINK-36771          
1 67928U 26036AA  26066.25001157 -.00017056  00000+0 -78635-4 0  9993
2 67928  42.9997 264.5119 0002114 256.1182 204.2495 15.82010116  3256
STARLINK-36809          
1 67929U 26036AB  26066.25001157 -.00027951  00000+0 -13065-3 0  9994
2 67929  42.9995 264.4904 0002419 243.5947 225.3338 15.82008902  3253
STARLINK-36865          
1 67930U 26036AC  26066.25001157 -.00060005  00000+0 -28419-3 0  9992
2 67930  42.9997 264.4689 0002173 245.6970 231.7666 15.82029175  3253
STARLINK-36781          
1 67931U 26036AD  26066.25001157 -.00057809  00000+0 -27380-3 0  9997
2 67931  42.9996 264.4799 0001937 273.5072 199.7016 15.82016823  3253
STARLINK-36301          
1 67932U 26037A   26066.25001157 -.01492556  00000+0 -63219-2 0  9992
2 67932  42.9994 213.5616 0001528 271.8343 114.7491 15.86932755  2712
STARLINK-36852          
1 67933U 26037B   26066.25001157 -.01453537  00000+0 -62223-2 0  9993
2 67933  42.9997 213.5535 0001525 273.5533 116.2434 15.87110870  2804
